[Satellite]
VERSION=1.1
NAME=OPTUS D2
NICKNAME=OPTUS D2
TLE1=1 32252U 07044A   15053.42699983 -.00000208  00000-0  00000+0 0  9993
TLE2=2 32252   0.0479 307.8840 0003013  38.2949 111.5184  1.00272463 27047
